#dP2021  7 29  6  0  0.00000000      96 __u+U ITR00 EXT  IAC
## 2168 367200.00000000   900.00000000 59424 0.2500000000000
+  117   C06C07C08C09C10C11C12C13C14C16C19C20C21C22C23C24C25
+        C26C27C28C29C30C32C33C34C35C36C37C38C39C40C41C42C43
+        C44C45C46E01E02E03E04E05E07E08E09E11E12E13E14E15E18
+        E19E21E24E25E26E27E30E31E33E36G01G02G03G04G05G06G07
+        G08G09G10G11G12G13G14G15G16G17G18G19G20G21G22G23G24
+        G25G26G27G28G29G30G31G32J01J02J03R01R02R03R04R05R07
+        R08R09R11R12R13R14R15R16R17R18R19R20R21R22R24  0  0
++         9 11 11 10  8  7  8 11  9 10  9  9  9  9  9  8  7
++         9  8  9  8  7  9  8  9 11  8  9 10 11  8  9  9  7
++         8  9  9  8  8  8  9  8  9  8  9 10  8  8  8  9  8
++         8  8  8  9  8  8  9  8  8  8  8  7  8  8  8  8  7
++         8  7  9  8  8  8  8  8  8  9  7  9  9  8  8  8  7
++         8  8  7  8  8  7  8  8 17 10  9  9  8  9  8  8  8
++         9  8  7  7  9  9  9  7  7  8  9  9  9  8  8  0  0
%c M  cc GPS ccc cccc cccc cccc cccc ccccc ccccc ccccc ccccc
%c cc cc ccc ccc cccc cccc cccc cccc ccccc ccccc ccccc ccccc
%f  0.0000000  0.000000000  0.00000000000  0.000000000000000
%f  0.0000000  0.000000000  0.00000000000  0.000000000000000
%i    0    0    0    0      0      0      0      0         0
%i    0    0    0    0      0      0      0      0         0
/* IAC                                ULTRA-RAPID PREDICTION
/* S/V CLOCKS ARE ALIGNED TO GNSS TIME                      
/* G:C1WC2W R:C1PC2P E:C1XC5X C:C2IC6I J:C1CC2S             
/* PCV:IGS14_2163 OL/AL:FES2004  NONE     YN ORB:CoN CLK:CoN
*  2021 07 29  8 45  0.00000000
PC06 -14178.864834  39041.574559   9170.624234    686.037444
PC07 -10225.619450  24840.663336 -32134.207779     69.626360
PC08 -23978.572279  24407.394380  24479.615470   -911.618294
PC09  -5793.298359  41613.974696  -5443.744001    -27.408881
PC10   3306.360131  30481.105882 -28513.077948    -13.885294
PC11  -5370.325333 -21570.995774 -16843.759184    485.602199
PC12   6788.447724 -27070.602004   -799.880337    797.372715
PC13  -9840.051690  25839.568216  31843.466180    354.024128
PC14 -16416.669364 -21781.466203  -6026.263630    765.088676
PC16 -12256.313804  39847.525396   7202.621499   -890.747558
PC19  21446.343771  17496.639691  -3446.147902    926.763307
PC20  10134.817125  22446.491886  13103.443675   -832.410697
PC21   7849.060597 -14224.776553 -22676.456423   -937.486640
PC22  20676.247753   2213.422936 -18594.725042   -948.913433
PC23 -27253.275924   5294.286626   2859.470721   -965.070407
PC24   -193.444865 -16610.119792  22427.018635   -963.141530
PC25 -20372.521294  -7097.681887  17691.266148   -878.586977
PC26  17781.288944 -16032.571047  14359.451319    872.044739
PC27 -12290.921184  23716.979401  -8117.735917    572.121937
PC28 -16967.072412   7211.790184 -20947.328650    -44.952497
PC29  12208.911784  13030.624552  21433.562393    425.983298
PC30    191.495236  26445.324951   8926.058906    475.658198
PC32  -7824.566984  14248.316822  22694.277349   -926.923818
PC33 -21548.770014 -17421.907637   3396.707335   -948.821564
PC34   -727.020760 -26168.257792  -9653.864487   -617.299607
PC35  16762.150035  -7342.561960  21050.068881   -164.936662
PC36  19920.318187   7786.540676 -17890.795769   -737.318460
PC37 -18906.903954  15306.857526 -13636.526370   -862.614303
PC38 -21718.111128  26497.892378  24476.404762    164.922610
PC39  -9238.958333  40650.139030   6868.552211     32.678679
PC40   -116.081827  26992.057707 -32315.635669    185.119498
PC41 -20869.131409  -2426.716554  18413.444793   -968.726999
PC42  -9511.741776 -22389.134660 -13650.665276   -925.037740
PC43 -11999.082048 -13651.228454 -21181.582689   -843.152240
PC44  11593.333416 -23990.619209   8233.977946    313.619395
PC45  27237.010142  -5488.970157  -2682.301191    506.197787
PC46   1497.133507  16225.548586 -22638.701190    157.043936
PE01 -16582.159130 -16304.480082  18321.016897  -1160.201835
PE02  16726.871214  16263.956863 -18217.475047    236.202063
PE03  12458.338190  26299.999590  -5364.826065   -457.837601
PE04 -18590.491616 -10843.763470  20331.586043   -823.482796
PE05  -1096.477408  26568.009714  13004.045872   -261.471436
PE07  13836.997405 -11364.615203 -23564.523672   -567.350330
PE08  18529.510879  10410.797610 -20592.856569   5962.759236
PE09 -13577.487444  11547.057465  23635.289765   5584.369733
PE11 -22450.554241  17772.795398  -7538.191064   5653.622359
PE12 -19508.749149     10.824022 -22273.675525   5087.332910
PE13  22458.399196 -17561.549097   7957.784992    419.616144
PE14 -13271.447431  19400.790630 -17782.054187  -1516.780410
PE15  19460.445013   -142.033898  22301.933482    800.911822
PE18   1575.113854 -27943.833621   3832.518665  -1662.874714
PE19 -11106.141093 -27252.050994   3198.440131    338.755076
PE21   4186.721287 -16043.722620  24524.992582   -678.928145
PE24 -24111.131135   5865.292771 -16131.108985  -1033.631658
PE25  -4437.064004  15977.381062 -24507.843109   -541.509379
PE26  11573.301636 -24573.873037 -11776.525838   1524.126249
PE27  23470.880706  -6537.738772  16819.789513    -86.082368
PE30  28568.547066   7558.999371  -1765.813190   2745.573612
PE31 -28811.610487  -6758.259559    742.314115   -483.791547
PE33  -5012.551315 -17316.569658 -23479.798756   -467.017092
PE36 -12239.064595  24595.125133  11019.147680   -240.970226
PG01   9669.614770 -19737.601808 -14932.234289    613.824413
PG02 -21711.216698  13754.970925  -6176.120408   -622.817700
PG03   1849.532653 -15321.303873 -21721.216906   -235.742560
PG04   1288.003511 -25905.974447  -5554.623758   -203.197532
PG05 -14454.545589   9663.887067  19962.538302    -49.397682
PG06 -20997.036956   2721.751783 -16015.369122     47.298352
PG07  -5461.420521 -15088.044196  21466.277163    213.253852
PG08   7469.626235 -20306.857716  15180.543306    -30.559776
PG09  -7637.555835 -24845.478127   5341.546386   -357.165754
PG10  23739.069172  11898.943040   3007.497375   -171.596246
PG11 -23522.362525  10326.909241  -6753.630290     25.627723
PG12  -3159.512316  15081.134632 -21898.043375    -75.291045
PG13 -12953.324347  13193.609711  18876.806712    164.030111
PG14 -23344.297183 -12524.277709   2233.039066     36.196262
PG15  -5443.012527  21350.671834  14205.883958   -132.190283
PG16  19977.938668  -2851.040116  17256.427025   -364.861759
PG17 -12432.850556 -15935.850804 -16799.982270    481.088147
PG18   7265.564837  13274.321489  21808.910920    337.396353
PG19 -14599.352818  -6591.480456 -21492.825246     32.558682
PG20 -23242.789251   3389.781999  12110.366910    519.937680
PG21  15591.629714 -19981.372611  -6281.182362    134.110143
PG22   9873.263966 -13005.595374 -20738.617405   -551.686518
PG23  16567.536074  16061.550512  13184.134149     78.100663
PG24 -12353.014239  21091.388084 -10136.948955    191.154932
PG25   9333.136342  17466.636292 -18087.190453    181.836687
PG26  25340.309086   3040.687072   7786.156868    116.284677
PG27  12677.023806 -10419.101301  20620.738859   -170.191050
PG28 -24121.828270 -10206.781851  -3182.559445    529.507887
PG29   4208.162671  25886.707902   3932.729932   -387.773933
PG30 -16533.738518  -6114.886178  19999.498029   -456.218329
PG31  22328.487076  -3821.332490 -14321.482058   -131.291798
PG32  14750.031131  12341.994249 -18277.341883     11.308058
PJ01 -25234.434448  22729.964576  30011.431987   -426.490734
PJ02 -32160.903659  14713.463689 -18437.667348     -1.121394
PJ03 -22458.584685  32541.149289  -9840.093693     -0.411633
PR01 -17048.903616 -10248.628321  15978.708955     83.008502
PR02  -7123.961473   8707.321002  22938.546230    487.801203
PR03   5826.303512  20262.681552  14439.341408     40.362026
PR04  15305.868329  20307.394513  -2022.812150     97.916627
PR05  16257.920219   9179.435309 -17381.105143     76.192413
PR07  -6293.987643 -20448.918935 -13817.167624    -41.852730
PR08 -15406.369038 -20201.018746   2219.480219    -60.126454
PR09  19758.158650  -8741.209462  13519.696369      5.345854
PR11 -15124.328810  -7504.924370  19141.725262     45.306670
PR12 -25215.523513    527.606235   3799.710542    249.230890
PR13 -20374.976569   8319.839175 -12909.699162    -58.394936
PR14  -2956.690238  11283.406318 -22668.586340     67.030512
PR15  15547.461802   7587.060738 -18716.462747    102.416176
PR16  25385.993523  -1690.172059  -2618.408426    -18.658041
PR17  -7071.015266  23243.221483   7701.650037    445.176243
PR18   3164.444584  14787.826017  20563.416044     85.064484
PR19  11523.150390   -368.449155  22747.846747   -153.351773
PR20  14501.411900 -18168.928599  10460.054771    -53.245609
PR21   6494.089033 -23016.544990  -8926.689683   -227.458942
PR22  -3749.782367 -13843.901712 -21089.879798   -125.099621
PR24 -14249.690233  18789.630954  -9690.526160     52.366601
EOF
